ORBCOMM FM33            
1 25983U 99065D   25260.56741759  .00000690  00000+0  26119-3 0  9991
2 25983  45.0281 279.6956 0008116 185.0886 174.9882 14.40174934349388
ORBCOMM FM36            
1 25984U 99065E   25260.30505291  .00000964  00000+0  35998-3 0  9992
2 25984  45.0409  14.2819 0001436  69.6072 290.4931 14.38332522347680
ORBCOMM FM35            
1 25985U 99065F   25260.35135484  .00000836  00000+0  32516-3 0  9992
2 25985  45.0411  19.8329 0004616 156.4871 203.6189 14.37280158348044
ORBCOMM FM34            
1 25986U 99065G   25260.31650211  .00000737  00000+0  29215-3 0  9991
2 25986  45.0406  20.4533 0003472 110.5853 249.5369 14.37279780348154
ORBCOMM FM38            
1 33060U 08031A   25260.34351820  .00001682  00000+0  23859-3 0  9991
2 33060  48.4397 235.9604 0004460  71.8086 288.3315 14.81656847928416
ORBCOMM FM41            
1 33061U 08031B   25260.33137688  .00001601  00000+0  23061-3 0  9991
2 33061  48.4432 244.1185 0003804  52.5504  85.5785 14.81229452927892
ORBCOMM FM29            
1 33062U 08031C   25260.02027855  .00001632  00000+0  23399-3 0  9990
2 33062  48.4384 253.2949 0005445  53.0110 344.5310 14.81343985927766
ORBCOMM FM39            
1 33063U 08031D   25260.47263276  .00001247  00000+0  19161-3 0  9993
2 33063  48.4399 276.4366 0006583  25.8625 334.2618 14.79858017927463
